[
    {
        "Altitude(m)": 708225.1537260489,
        "Argument of Periapsis(deg)": 0.0034170363559881197,
        "Eccentricity": 0.0,
        "Inclination(deg)": 45.0,
        "Latitude(deg)": -20.378583576829374,
        "Longitude(deg)": -161.89398031037086,
        "Mean Anomaly(deg)": -29.26733500575577,
        "RAAN(deg)": 319.9967744175625,
        "Satellite Name": "Constellation 1 1428",
        "Satellite Number": 1428,
        "Semi-Major Axis(m)": 7083131.272910544,
        "Time(s)": 57
    },
    {
        "Altitude(m)": 708211.9679516851,
        "Argument of Periapsis(deg)": 0.003476984362233526,
        "Eccentricity": 0.0,
        "Inclination(deg)": 45.0,
        "Latitude(deg)": -20.338509142289038,
        "Longitude(deg)": -161.84942204856998,
        "Mean Anomaly(deg)": -29.206633865505932,
        "RAAN(deg)": 319.996717828397,
        "Satellite Name": "Constellation 1 1428",
        "Satellite Number": 1428,
        "Semi-Major Axis(m)": 7083131.272910544,
        "Time(s)": 58
    },
    {
        "Altitude(m)": 708198.7899661436,
        "Argument of Periapsis(deg)": 0.003536932368478932,
        "Eccentricity": 0.0,
        "Inclination(deg)": 45.0,
        "Latitude(deg)": -20.298420889101422,
        "Longitude(deg)": -161.80488890844842,
        "Mean Anomaly(deg)": -29.145932725255992,
        "RAAN(deg)": 319.9966612392314,
        "Satellite Name": "Constellation 1 1428",
        "Satellite Number": 1428,
        "Semi-Major Axis(m)": 7083131.272910544,
        "Time(s)": 59
    },
    {
        "Altitude(m)": 708185.6198123398,
        "Argument of Periapsis(deg)": 0.003596880374724337,
        "Eccentricity": 0.0,
        "Inclination(deg)": 45.0,
        "Latitude(deg)": -20.25831885328553,
        "Longitude(deg)": -161.7603804957953,
        "Mean Anomaly(deg)": -29.085231585006007,
        "RAAN(deg)": 319.9966046500659,
        "Satellite Name": "Constellation 1 1428",
        "Satellite Number": 1428,
        "Semi-Major Axis(m)": 7083131.272910544,
        "Time(s)": 60
    },
    {
        "Altitude(m)": 708172.457533122,
        "Argument of Periapsis(deg)": 0.0036568283809697427,
        "Eccentricity": 0.0,
        "Inclination(deg)": 45.0,
        "Latitude(deg)": -20.21820307081085,
        "Longitude(deg)": -161.7158969207176,
        "Mean Anomaly(deg)": -29.024530444756174,
        "RAAN(deg)": 319.99654806090024,
        "Satellite Name": "Constellation 1 1428",
        "Satellite Number": 1428,
        "Semi-Major Axis(m)": 7083131.272910544,
        "Time(s)": 61
    },
    {
        "Altitude(m)": 708159.3031713035,
        "Argument of Periapsis(deg)": 0.003716776387215149,
        "Eccentricity": 0.0,
        "Inclination(deg)": 45.0,
        "Latitude(deg)": -20.178073577598532,
        "Longitude(deg)": -161.6714381252518,
        "Mean Anomaly(deg)": -28.963829304506287,
        "RAAN(deg)": 319.99649147173466,
        "Satellite Name": "Constellation 1 1428",
        "Satellite Number": 1428,
        "Semi-Major Axis(m)": 7083131.272910544,
        "Time(s)": 62
    },
    {
        "Altitude(m)": 708146.1567696552,
        "Argument of Periapsis(deg)": 0.003776724393460554,
        "Eccentricity": 0.0,
        "Inclination(deg)": 45.0,
        "Latitude(deg)": -20.13793040952132,
        "Longitude(deg)": -161.62700405146109,
        "Mean Anomaly(deg)": -28.903128164256348,
        "RAAN(deg)": 319.99643488256913,
        "Satellite Name": "Constellation 1 1428",
        "Satellite Number": 1428,
        "Semi-Major Axis(m)": 7083131.272910544,
        "Time(s)": 63
    },
    {
        "Altitude(m)": 708133.0183708969,
        "Argument of Periapsis(deg)": 0.003836672399705959,
        "Eccentricity": 0.0,
        "Inclination(deg)": 45.0,
        "Latitude(deg)": -20.09777360240388,
        "Longitude(deg)": -161.58259464143592,
        "Mean Anomaly(deg)": -28.84242702400646,
        "RAAN(deg)": 319.99637829340355,
        "Satellite Name": "Constellation 1 1428",
        "Satellite Number": 1428,
        "Semi-Major Axis(m)": 7083131.272910544,
        "Time(s)": 64
    },
    {
        "Altitude(m)": 708119.8880177081,
        "Argument of Periapsis(deg)": 0.003896620405951365,
        "Eccentricity": 0.0,
        "Inclination(deg)": 45.0,
        "Latitude(deg)": -20.057603192022473,
        "Longitude(deg)": -161.53820983729358,
        "Mean Anomaly(deg)": -28.781725883756625,
        "RAAN(deg)": 319.996321704238,
        "Satellite Name": "Constellation 1 1428",
        "Satellite Number": 1428,
        "Semi-Major Axis(m)": 7083131.272910544,
        "Time(s)": 65
    },
    {
        "Altitude(m)": 708106.7657527219,
        "Argument of Periapsis(deg)": 0.003956568412196771,
        "Eccentricity": 0.0,
        "Inclination(deg)": 45.0,
        "Latitude(deg)": -20.017419214105338,
        "Longitude(deg)": -161.49384958117832,
        "Mean Anomaly(deg)": -28.721024743506685,
        "RAAN(deg)": 319.9962651150724,
        "Satellite Name": "Constellation 1 1428",
        "Satellite Number": 1428,
        "Semi-Major Axis(m)": 7083131.272910544,
        "Time(s)": 66
    },
    {
        "Altitude(m)": 708093.6516185247,
        "Argument of Periapsis(deg)": 0.004016516418442176,
        "Eccentricity": 0.0,
        "Inclination(deg)": 45.0,
        "Latitude(deg)": -19.977221704332607,
        "Longitude(deg)": -161.449513983359,
        "Mean Anomaly(deg)": -28.660323603256753,
        "RAAN(deg)": 319.9962085259068,
        "Satellite Name": "Constellation 1 1428",
        "Satellite Number": 1428,
        "Semi-Major Axis(m)": 7083131.272910544,
        "Time(s)": 67
    },
    {
        "Altitude(m)": 708080.5456576563,
        "Argument of Periapsis(deg)": 0.004076464424687581,
        "Eccentricity": 0.0,
        "Inclination(deg)": 45.0,
        "Latitude(deg)": -19.9370106983374,
        "Longitude(deg)": -161.40520264984005,
        "Mean Anomaly(deg)": -28.599622463006916,
        "RAAN(deg)": 319.9961519367413,
        "Satellite Name": "Constellation 1 1428",
        "Satellite Number": 1428,
        "Semi-Major Axis(m)": 7083131.272910544,
        "Time(s)": 68
    },
    {
        "Altitude(m)": 708067.4479126179,
        "Argument of Periapsis(deg)": 0.004136412430932987,
        "Eccentricity": 0.0,
        "Inclination(deg)": 45.0,
        "Latitude(deg)": -19.8967862317041,
        "Longitude(deg)": -161.3609156909448,
        "Mean Anomaly(deg)": -28.53892132275698,
        "RAAN(deg)": 319.9960953475757,
        "Satellite Name": "Constellation 1 1428",
        "Satellite Number": 1428,
        "Semi-Major Axis(m)": 7083131.272910544,
        "Time(s)": 69
    },
    {
        "Altitude(m)": 708054.3584258548,
        "Argument of Periapsis(deg)": 0.004196360437178394,
        "Eccentricity": 0.0,
        "Inclination(deg)": 45.0,
        "Latitude(deg)": -19.856548339969997,
        "Longitude(deg)": -161.3166530489266,
        "Mean Anomaly(deg)": -28.47822018250704,
        "RAAN(deg)": 319.9960387584101,
        "Satellite Name": "Constellation 1 1428",
        "Satellite Number": 1428,
        "Semi-Major Axis(m)": 7083131.272910544,
        "Time(s)": 70
    },
    {
        "Altitude(m)": 708041.2772397773,
        "Argument of Periapsis(deg)": 0.004256308443423799,
        "Eccentricity": 0.0,
        "Inclination(deg)": 45.0,
        "Latitude(deg)": -19.816297058624855,
        "Longitude(deg)": -161.27241466606674,
        "Mean Anomaly(deg)": -28.417519042257155,
        "RAAN(deg)": 319.99598216924454,
        "Satellite Name": "Constellation 1 1428",
        "Satellite Number": 1428,
        "Semi-Major Axis(m)": 7083131.272910544,
        "Time(s)": 71
    },
    {
        "Altitude(m)": 708028.2043967411,
        "Argument of Periapsis(deg)": 0.004316256449669204,
        "Eccentricity": 0.0,
        "Inclination(deg)": 45.0,
        "Latitude(deg)": -19.776032423110937,
        "Longitude(deg)": -161.2282004846736,
        "Mean Anomaly(deg)": -28.356817902007265,
        "RAAN(deg)": 319.99592558007896,
        "Satellite Name": "Constellation 1 1428",
        "Satellite Number": 1428,
        "Semi-Major Axis(m)": 7083131.272910544,
        "Time(s)": 72
    },
    {
        "Altitude(m)": 708015.1399390579,
        "Argument of Periapsis(deg)": 0.00437620445591461,
        "Eccentricity": 0.0,
        "Inclination(deg)": 45.0,
        "Latitude(deg)": -19.735754468823306,
        "Longitude(deg)": -161.18401044708332,
        "Mean Anomaly(deg)": -28.29611676175733,
        "RAAN(deg)": 319.99586899091344,
        "Satellite Name": "Constellation 1 1428",
        "Satellite Number": 1428,
        "Semi-Major Axis(m)": 7083131.272910544,
        "Time(s)": 73
    },
    {
        "Altitude(m)": 708002.0839089898,
        "Argument of Periapsis(deg)": 0.004436152462160016,
        "Eccentricity": 0.0,
        "Inclination(deg)": 45.0,
        "Latitude(deg)": -19.69546323110981,
        "Longitude(deg)": -161.13984466375706,
        "Mean Anomaly(deg)": -28.235415621507546,
        "RAAN(deg)": 319.99581240174786,
        "Satellite Name": "Constellation 1 1428",
        "Satellite Number": 1428,
        "Semi-Major Axis(m)": 7083131.272910544,
        "Time(s)": 74
    },
    {
        "Altitude(m)": 707989.0363487629,
        "Argument of Periapsis(deg)": 0.0044961004684054215,
        "Eccentricity": 0.0,
        "Inclination(deg)": 45.0,
        "Latitude(deg)": -19.65515874527168,
        "Longitude(deg)": -161.09570274089214,
        "Mean Anomaly(deg)": -28.17471448125761,
        "RAAN(deg)": 319.9957558125823,
        "Satellite Name": "Constellation 1 1428",
        "Satellite Number": 1428,
        "Semi-Major Axis(m)": 7083131.272910544,
        "Time(s)": 75
    }
]